ONEWEB-0597             
1 54663U 22166X   25014.91751049  .00000047  00000+0  82262-4 0  9993
2 54663  87.9320 347.2476 0001744  74.9891 285.1436 13.21826788103540
ONEWEB-0600             
1 54664U 22166Y   25014.90014967  .00000000  00000+0 -32303-4 0  9995
2 54664  87.9315 347.2795 0001700  80.7136 279.4190 13.21827965103044
ONEWEB-0601             
1 54665U 22166Z   25014.89227718  .00000033  00000+0  48613-4 0  9990
2 54665  87.9322 347.2608 0001925  70.3728 289.7614 13.21827502103230
ONEWEB-0602             
1 54666U 22166AA  25015.46314081 -.00000351  00000+0 -88118-3 0  9993
2 54666  87.9319 347.1495 0001626  75.2138 284.9176 13.21825387103629
ONEWEB-0603             
1 54667U 22166AB  25015.46788617  .00000106  00000+0  22415-3 0  9998
2 54667  87.9296 347.1309 0001752  72.9690 287.1636 13.21826610103542
ONEWEB-0604             
1 54668U 22166AC  25015.45526785  .00000055  00000+0  10205-3 0  9991
2 54668  87.9314 347.1204 0001591  75.6679 284.4632 13.21823946103518
ONEWEB-0605             
1 54669U 22166AD  25014.99478378  .00000022  00000+0  20741-4 0  9995
2 54669  87.9313 347.2435 0002292  66.6524 293.4851 13.21824292103522
ONEWEB-0606             
1 54670U 22166AE  25015.39534103  .00000038  00000+0  61139-4 0  9994
2 54670  87.9319 347.1658 0001871  88.8731 271.2617 13.21824496103625
